{
"type": "FeatureCollection",
"name": "sql_statement",
"crs": { "type": "name", "properties": { "name": "urn:ogc:def:crs:OGC:1.3:CRS84" } },
"features": [
{ "type": "Feature", "properties": { "amenity": "theatre", "name": "Austin360 Amphitheater", "website": null, "addr:postcode": null, "phone": null, "addr:housenumber": null, "addr:street": null, "theatre": null, "wikidata": null, "addr:state": null, "ele": null, "image": null, "name:en": null, "opening_hours": null, "wikipedia": null }, "geometry": { "type": "Point", "coordinates": [ -97.638114, 30.1342602 ] } },
{ "type": "Feature", "properties": { "amenity": "theatre", "name": "Austin Film Society", "website": "http:\/\/austinfilm.org", "addr:postcode": "78723", "phone": "5123220145", "addr:housenumber": "1901", "addr:street": "East 51st Street", "theatre": null, "wikidata": null, "addr:state": null, "ele": null, "image": null, "name:en": null, "opening_hours": null, "wikipedia": null }, "geometry": { "type": "Point", "coordinates": [ -97.6961519, 30.3010359 ] } },
{ "type": "Feature", "properties": { "amenity": "theatre", "name": "Bass Concert Hall", "website": null, "addr:postcode": null, "phone": null, "addr:housenumber": null, "addr:street": null, "theatre": "concert_hall", "wikidata": null, "addr:state": null, "ele": null, "image": null, "name:en": null, "opening_hours": null, "wikipedia": null }, "geometry": { "type": "Point", "coordinates": [ -97.7312765, 30.2858966 ] } },
{ "type": "Feature", "properties": { "amenity": "theatre", "name": "Bates Recital Hall", "website": null, "addr:postcode": null, "phone": null, "addr:housenumber": null, "addr:street": null, "theatre": "concert_hall", "wikidata": null, "addr:state": null, "ele": null, "image": null, "name:en": null, "opening_hours": null, "wikipedia": null }, "geometry": { "type": "Point", "coordinates": [ -97.7306801, 30.2874336 ] } },
{ "type": "Feature", "properties": { "amenity": "theatre", "name": "Esther's Follies", "website": "http:\/\/www.esthersfollies.com\/", "addr:postcode": null, "phone": "(512)320-0553", "addr:housenumber": null, "addr:street": null, "theatre": null, "wikidata": "Q5401115", "addr:state": null, "ele": null, "image": "http:\/\/commons.wikimedia.org\/wiki\/File:Esthers_follies_austin_tx_2014.jpg", "name:en": null, "opening_hours": null, "wikipedia": "en:Esther's Follies" }, "geometry": { "type": "Point", "coordinates": [ -97.7374511, 30.2662204 ] } },
{ "type": "Feature", "properties": { "amenity": "theatre", "name": "Google Fiber Space", "website": "https:\/\/fiber.google.com\/cities\/austin\/fiberspace\/", "addr:postcode": "78701", "phone": "866 777 7550", "addr:housenumber": "201", "addr:street": "Colorado Street", "theatre": null, "wikidata": null, "addr:state": null, "ele": null, "image": null, "name:en": null, "opening_hours": "Mo-We 10:00-18:00; Th-Sa 10:00-21:00", "wikipedia": null }, "geometry": { "type": "Point", "coordinates": [ -97.745067, 30.264852 ] } },
{ "type": "Feature", "properties": { "amenity": "theatre", "name": "Mary Moody Northern Theater", "website": null, "addr:postcode": null, "phone": null, "addr:housenumber": null, "addr:street": null, "theatre": null, "wikidata": null, "addr:state": "TX", "ele": "203", "image": null, "name:en": null, "opening_hours": null, "wikipedia": null }, "geometry": { "type": "Point", "coordinates": [ -97.753, 30.2294 ] } },
{ "type": "Feature", "properties": { "amenity": "theatre", "name": "Paramount Theater", "website": "http:\/\/austintheatre.org", "addr:postcode": "78701", "phone": null, "addr:housenumber": null, "addr:street": null, "theatre": null, "wikidata": null, "addr:state": null, "ele": null, "image": null, "name:en": null, "opening_hours": null, "wikipedia": null }, "geometry": { "type": "Point", "coordinates": [ -97.7419192, 30.2692551 ] } },
{ "type": "Feature", "properties": { "amenity": "theatre", "name": "Trinity Hall", "website": "http:\/\/trinityhall.com", "addr:postcode": "78701", "phone": "5126348278", "addr:housenumber": "311", "addr:street": "East 5th Street", "theatre": null, "wikidata": null, "addr:state": null, "ele": null, "image": null, "name:en": null, "opening_hours": null, "wikipedia": null }, "geometry": { "type": "Point", "coordinates": [ -97.7399792, 30.2660856 ] } },
{ "type": "Feature", "properties": { "amenity": "theatre", "name": "Zach Theatre", "website": "http:\/\/zachtheatre.org", "addr:postcode": "78704", "phone": "5124760541", "addr:housenumber": null, "addr:street": null, "theatre": null, "wikidata": "Q8063851", "addr:state": null, "ele": null, "image": null, "name:en": "Zach Theatre", "opening_hours": null, "wikipedia": null }, "geometry": { "type": "Point", "coordinates": [ -97.7576942, 30.2641332 ] } }
]
}
